CCSDS_OMM_VERS = 2.0
CREATION_DATE  = 
ORIGINATOR     = 

OBJECT_NAME    = AQUA
OBJECT_ID      = 2002-022A
CENTER_NAME    = EARTH
REF_FRAME      = TEME
TIME_SYSTEM    = UTC
MEAN_ELEMENT_THEORY = SGP/SGP4

EPOCH          = 2026-03-14T13:24:41.749056
MEAN_MOTION    = 14.61990486
ECCENTRICITY   = .00006104
INCLINATION    = 98.4181
RA_OF_ASC_NODE = 41.0126
ARG_OF_PERICENTER = 99.4370
MEAN_ANOMALY   = 40.4397

EPHEMERIS_TYPE = 0
CLASSIFICATION_TYPE = U
NORAD_CAT_ID   = 27424
ELEMENT_SET_NO = 999
REV_AT_EPOCH   = 26944
BSTAR          = .26064684E-3
MEAN_MOTION_DOT = .1257E-4
MEAN_MOTION_DDOT = 0

CCSDS_OMM_VERS = 2.0
CREATION_DATE  = 
ORIGINATOR     = 

OBJECT_NAME    = CZ-4B R/B
OBJECT_ID      = 2002-024C
CENTER_NAME    = EARTH
REF_FRAME      = TEME
TIME_SYSTEM    = UTC
MEAN_ELEMENT_THEORY = SGP/SGP4

EPOCH          = 2026-03-14T14:51:36.430560
MEAN_MOTION    = 14.14548748
ECCENTRICITY   = .00502443
INCLINATION    = 98.8828
RA_OF_ASC_NODE = 127.0007
ARG_OF_PERICENTER = 10.2649
MEAN_ANOMALY   = 150.5250

EPHEMERIS_TYPE = 0
CLASSIFICATION_TYPE = U
NORAD_CAT_ID   = 27432
ELEMENT_SET_NO = 999
REV_AT_EPOCH   = 22993
BSTAR          = .53805332E-4
MEAN_MOTION_DOT = .6E-6
MEAN_MOTION_DDOT = 0

CCSDS_OMM_VERS = 2.0
CREATION_DATE  = 
ORIGINATOR     = 

OBJECT_NAME    = MIDORI II (ADEOS-II)
OBJECT_ID      = 2002-056A
CENTER_NAME    = EARTH
REF_FRAME      = TEME
TIME_SYSTEM    = UTC
MEAN_ELEMENT_THEORY = SGP/SGP4

EPOCH          = 2026-03-14T11:51:23.089536
MEAN_MOTION    = 14.29289399
ECCENTRICITY   = .00014113
INCLINATION    = 98.7775
RA_OF_ASC_NODE = 32.0049
ARG_OF_PERICENTER = 36.2929
MEAN_ANOMALY   = 323.8348

EPHEMERIS_TYPE = 0
CLASSIFICATION_TYPE = U
NORAD_CAT_ID   = 27597
ELEMENT_SET_NO = 999
REV_AT_EPOCH   = 21098
BSTAR          = .1624702E-3
MEAN_MOTION_DOT = .368E-5
MEAN_MOTION_DDOT = 0

CCSDS_OMM_VERS = 2.0
CREATION_DATE  = 
ORIGINATOR     = 

OBJECT_NAME    = H-2A R/B
OBJECT_ID      = 2002-056E
CENTER_NAME    = EARTH
REF_FRAME      = TEME
TIME_SYSTEM    = UTC
MEAN_ELEMENT_THEORY = SGP/SGP4

EPOCH          = 2026-03-14T12:48:12.219264
MEAN_MOTION    = 14.33764385
ECCENTRICITY   = .00707799
INCLINATION    = 98.3209
RA_OF_ASC_NODE = 33.7148
ARG_OF_PERICENTER = 146.3358
MEAN_ANOMALY   = 330.7699

EPHEMERIS_TYPE = 0
CLASSIFICATION_TYPE = U
NORAD_CAT_ID   = 27601
ELEMENT_SET_NO = 999
REV_AT_EPOCH   = 21480
BSTAR          = .12470361E-3
MEAN_MOTION_DOT = .315E-5
MEAN_MOTION_DDOT = 0

CCSDS_OMM_VERS = 2.0
CREATION_DATE  = 
ORIGINATOR     = 

OBJECT_NAME    = CZ-4B R/B
OBJECT_ID      = 2003-049C
CENTER_NAME    = EARTH
REF_FRAME      = TEME
TIME_SYSTEM    = UTC
MEAN_ELEMENT_THEORY = SGP/SGP4

EPOCH          = 2026-03-14T12:59:11.317344
MEAN_MOTION    = 14.55025532
ECCENTRICITY   = .00474463
INCLINATION    = 98.6882
RA_OF_ASC_NODE = 68.6364
ARG_OF_PERICENTER = 215.8095
MEAN_ANOMALY   = 143.9918

EPHEMERIS_TYPE = 0
CLASSIFICATION_TYPE = U
NORAD_CAT_ID   = 28059
ELEMENT_SET_NO = 999
REV_AT_EPOCH   = 18730
BSTAR          = .11808052E-3
MEAN_MOTION_DOT = .464E-5
MEAN_MOTION_DDOT = 0

CCSDS_OMM_VERS = 2.0
CREATION_DATE  = 
ORIGINATOR     = 

OBJECT_NAME    = CZ-2C R/B
OBJECT_ID      = 2004-012C
CENTER_NAME    = EARTH
REF_FRAME      = TEME
TIME_SYSTEM    = UTC
MEAN_ELEMENT_THEORY = SGP/SGP4

EPOCH          = 2026-03-14T14:19:43.737600
MEAN_MOTION    = 15.65143192
ECCENTRICITY   = .00129583
INCLINATION    = 97.7223
RA_OF_ASC_NODE = 139.3571
ARG_OF_PERICENTER = 289.7217
MEAN_ANOMALY   = 70.2644

EPHEMERIS_TYPE = 0
CLASSIFICATION_TYPE = U
NORAD_CAT_ID   = 28222
ELEMENT_SET_NO = 999
REV_AT_EPOCH   = 20504
BSTAR          = .80874356E-3
MEAN_MOTION_DOT = .80599E-3
MEAN_MOTION_DDOT = 0

CCSDS_OMM_VERS = 2.0
CREATION_DATE  = 
ORIGINATOR     = 

OBJECT_NAME    = SL-16 R/B
OBJECT_ID      = 2004-021B
CENTER_NAME    = EARTH
REF_FRAME      = TEME
TIME_SYSTEM    = UTC
MEAN_ELEMENT_THEORY = SGP/SGP4

EPOCH          = 2026-03-14T13:09:34.479936
MEAN_MOTION    = 14.14595913
ECCENTRICITY   = .00043399
INCLINATION    = 70.9997
RA_OF_ASC_NODE = 222.2957
ARG_OF_PERICENTER = 2.5711
MEAN_ANOMALY   = 357.5432

EPHEMERIS_TYPE = 0
CLASSIFICATION_TYPE = U
NORAD_CAT_ID   = 28353
ELEMENT_SET_NO = 999
REV_AT_EPOCH   = 12352
BSTAR          = -.12487664E-3
MEAN_MOTION_DOT = -.288E-5
MEAN_MOTION_DDOT = 0

CCSDS_OMM_VERS = 2.0
CREATION_DATE  = 
ORIGINATOR     = 

OBJECT_NAME    = CZ-4B R/B
OBJECT_ID      = 2004-035C
CENTER_NAME    = EARTH
REF_FRAME      = TEME
TIME_SYSTEM    = UTC
MEAN_ELEMENT_THEORY = SGP/SGP4

EPOCH          = 2026-03-14T14:54:02.342880
MEAN_MOTION    = 15.29160798
ECCENTRICITY   = .00305258
INCLINATION    = 97.3499
RA_OF_ASC_NODE = 107.8047
ARG_OF_PERICENTER = 313.3150
MEAN_ANOMALY   = 46.5545

EPHEMERIS_TYPE = 0
CLASSIFICATION_TYPE = U
NORAD_CAT_ID   = 28415
ELEMENT_SET_NO = 999
REV_AT_EPOCH   = 18066
BSTAR          = .39293029E-3
MEAN_MOTION_DOT = .11204E-3
MEAN_MOTION_DDOT = 0

CCSDS_OMM_VERS = 2.0
CREATION_DATE  = 
ORIGINATOR     = 

OBJECT_NAME    = CZ-2C R/B
OBJECT_ID      = 2004-046B
CENTER_NAME    = EARTH
REF_FRAME      = TEME
TIME_SYSTEM    = UTC
MEAN_ELEMENT_THEORY = SGP/SGP4

EPOCH          = 2026-03-14T14:30:06.470784
MEAN_MOTION    = 14.26993937
ECCENTRICITY   = .01401485
INCLINATION    = 98.1981
RA_OF_ASC_NODE = 348.2823
ARG_OF_PERICENTER = 139.9634
MEAN_ANOMALY   = 221.1980

EPHEMERIS_TYPE = 0
CLASSIFICATION_TYPE = U
NORAD_CAT_ID   = 28480
ELEMENT_SET_NO = 999
REV_AT_EPOCH   = 10920
BSTAR          = .67177038E-4
MEAN_MOTION_DOT = .141E-5
MEAN_MOTION_DDOT = 0

CCSDS_OMM_VERS = 2.0
CREATION_DATE  = 
ORIGINATOR     = 

OBJECT_NAME    = ARIANE 5 R/B
OBJECT_ID      = 2004-049H
CENTER_NAME    = EARTH
REF_FRAME      = TEME
TIME_SYSTEM    = UTC
MEAN_ELEMENT_THEORY = SGP/SGP4

EPOCH          = 2026-03-14T11:35:44.730240
MEAN_MOTION    = 14.85275527
ECCENTRICITY   = .00836029
INCLINATION    = 98.2634
RA_OF_ASC_NODE = 242.1197
ARG_OF_PERICENTER = 336.3338
MEAN_ANOMALY   = 23.4039

EPHEMERIS_TYPE = 0
CLASSIFICATION_TYPE = U
NORAD_CAT_ID   = 28499
ELEMENT_SET_NO = 999
REV_AT_EPOCH   = 14650
BSTAR          = .10064638E-3
MEAN_MOTION_DOT = .854E-5
MEAN_MOTION_DDOT = 0

CCSDS_OMM_VERS = 2.0
CREATION_DATE  = 
ORIGINATOR     = 

OBJECT_NAME    = CZ-2D R/B
OBJECT_ID      = 2005-024B
CENTER_NAME    = EARTH
REF_FRAME      = TEME
TIME_SYSTEM    = UTC
MEAN_ELEMENT_THEORY = SGP/SGP4

EPOCH          = 2026-03-14T13:59:48.460992
MEAN_MOTION    = 15.60629466
ECCENTRICITY   = .00050033
INCLINATION    = 97.3593
RA_OF_ASC_NODE = 88.9107
ARG_OF_PERICENTER = 34.6697
MEAN_ANOMALY   = 325.4885

EPHEMERIS_TYPE = 0
CLASSIFICATION_TYPE = U
NORAD_CAT_ID   = 28738
ELEMENT_SET_NO = 999
REV_AT_EPOCH   = 14054
BSTAR          = .71029569E-3
MEAN_MOTION_DOT = .5901E-3
MEAN_MOTION_DDOT = 0

CCSDS_OMM_VERS = 2.0
CREATION_DATE  = 
ORIGINATOR     = 

OBJECT_NAME    = ALOS (DAICHI)
OBJECT_ID      = 2006-002A
CENTER_NAME    = EARTH
REF_FRAME      = TEME
TIME_SYSTEM    = UTC
MEAN_ELEMENT_THEORY = SGP/SGP4

EPOCH          = 2026-03-14T11:20:25.139616
MEAN_MOTION    = 14.69827339
ECCENTRICITY   = .00007721
INCLINATION    = 98.1224
RA_OF_ASC_NODE = 29.4041
ARG_OF_PERICENTER = 65.5936
MEAN_ANOMALY   = 294.5350

EPHEMERIS_TYPE = 0
CLASSIFICATION_TYPE = U
NORAD_CAT_ID   = 28931
ELEMENT_SET_NO = 999
REV_AT_EPOCH   = 7418
BSTAR          = .27114661E-3
MEAN_MOTION_DOT = .157E-4
MEAN_MOTION_DDOT = 0

